[{"OBJECT_NAME":"COSMOS 2251 DEB","OBJECT_ID":"1993-036AXQ","EPOCH":"2026-03-28T00:55:34.712544","MEAN_MOTION":14.58844462,"ECCENTRICITY":0.00325625,"INCLINATION":73.8713,"RA_OF_ASC_NODE":310.36,"ARG_OF_PERICENTER":235.4805,"MEAN_ANOMALY":124.3284,"EPHEMERIS_TYPE":0,"CLASSIFICATION_TYPE":"U","NORAD_CAT_ID":36053,"ELEMENT_SET_NO":999,"REV_AT_EPOCH":88979,"BSTAR":0.00098011569,"MEAN_MOTION_DOT":4.592e-5,"MEAN_MOTION_DDOT":0},{"OBJECT_NAME":"COSMOS 2251 DEB","OBJECT_ID":"1993-036AXV","EPOCH":"2026-03-28T13:28:08.469696","MEAN_MOTION":14.59321184,"ECCENTRICITY":0.0046593,"INCLINATION":74.0238,"RA_OF_ASC_NODE":191.669,"ARG_OF_PERICENTER":297.2117,"MEAN_ANOMALY":62.4303,"EPHEMERIS_TYPE":0,"CLASSIFICATION_TYPE":"U","NORAD_CAT_ID":36058,"ELEMENT_SET_NO":999,"REV_AT_EPOCH":67654,"BSTAR":0.00053144038,"MEAN_MOTION_DOT":2.521e-5,"MEAN_MOTION_DDOT":0},{"OBJECT_NAME":"COSMOS 2251 DEB","OBJECT_ID":"1993-036AXX","EPOCH":"2026-03-28T13:40:01.579872","MEAN_MOTION":14.42267966,"ECCENTRICITY":0.0013869,"INCLINATION":74.0302,"RA_OF_ASC_NODE":38.2608,"ARG_OF_PERICENTER":118.6208,"MEAN_ANOMALY":241.6345,"EPHEMERIS_TYPE":0,"CLASSIFICATION_TYPE":"U","NORAD_CAT_ID":36060,"ELEMENT_SET_NO":999,"REV_AT_EPOCH":86535,"BSTAR":0.00033503,"MEAN_MOTION_DOT":1.08e-5,"MEAN_MOTION_DDOT":0},{"OBJECT_NAME":"COSMOS 2251 DEB","OBJECT_ID":"1993-036AXY","EPOCH":"2026-03-27T23:05:22.185312","MEAN_MOTION":14.33913892,"ECCENTRICITY":0.00395246,"INCLINATION":74.0242,"RA_OF_ASC_NODE":167.1328,"ARG_OF_PERICENTER":231.6785,"MEAN_ANOMALY":128.0812,"EPHEMERIS_TYPE":0,"CLASSIFICATION_TYPE":"U","NORAD_CAT_ID":36061,"ELEMENT_SET_NO":999,"REV_AT_EPOCH":66612,"BSTAR":0.00024979246,"MEAN_MOTION_DOT":6.76e-6,"MEAN_MOTION_DDOT":0},{"OBJECT_NAME":"COSMOS 2251 DEB","OBJECT_ID":"1993-036AYL","EPOCH":"2026-03-28T19:55:43.558464","MEAN_MOTION":14.35104391,"ECCENTRICITY":0.00245961,"INCLINATION":74.0301,"RA_OF_ASC_NODE":128.0602,"ARG_OF_PERICENTER":177.2807,"MEAN_ANOMALY":182.8484,"EPHEMERIS_TYPE":0,"CLASSIFICATION_TYPE":"U","NORAD_CAT_ID":36073,"ELEMENT_SET_NO":999,"REV_AT_EPOCH":71729,"BSTAR":0.00018478731,"MEAN_MOTION_DOT":5.03e-6,"MEAN_MOTION_DDOT":0},{"OBJECT_NAME":"COSMOS 2251 DEB","OBJECT_ID":"1993-036AYM","EPOCH":"2026-03-28T03:07:46.942752","MEAN_MOTION":14.44621453,"ECCENTRICITY":0.00450248,"INCLINATION":73.9916,"RA_OF_ASC_NODE":143.8851,"ARG_OF_PERICENTER":215.752,"MEAN_ANOMALY":144.0622,"EPHEMERIS_TYPE":0,"CLASSIFICATION_TYPE":"U","NORAD_CAT_ID":36074,"ELEMENT_SET_NO":999,"REV_AT_EPOCH":87431,"BSTAR":0.00073863647,"MEAN_MOTION_DOT":2.562e-5,"MEAN_MOTION_DDOT":0},{"OBJECT_NAME":"COSMOS 2251 DEB","OBJECT_ID":"1993-036AYT","EPOCH":"2026-03-28T08:05:39.499872","MEAN_MOTION":14.34488256,"ECCENTRICITY":0.0083891,"INCLINATION":74.064,"RA_OF_ASC_NODE":80.1632,"ARG_OF_PERICENTER":83.8637,"MEAN_ANOMALY":277.2065,"EPHEMERIS_TYPE":0,"CLASSIFICATION_TYPE":"U","NORAD_CAT_ID":36366,"ELEMENT_SET_NO":999,"REV_AT_EPOCH":87802,"BSTAR":0.0014839081,"MEAN_MOTION_DOT":4.33e-5,"MEAN_MOTION_DDOT":0},{"OBJECT_NAME":"COSMOS 2251 DEB","OBJECT_ID":"1993-036AYU","EPOCH":"2026-03-28T14:49:14.330208","MEAN_MOTION":13.86795712,"ECCENTRICITY":0.0258336,"INCLINATION":74.1009,"RA_OF_ASC_NODE":52.7568,"ARG_OF_PERICENTER":100.6859,"MEAN_ANOMALY":262.3468,"EPHEMERIS_TYPE":0,"CLASSIFICATION_TYPE":"U","NORAD_CAT_ID":36367,"ELEMENT_SET_NO":999,"REV_AT_EPOCH":58997,"BSTAR":0.0015886,"MEAN_MOTION_DOT":2.39e-5,"MEAN_MOTION_DDOT":0},{"OBJECT_NAME":"COSMOS 2251 DEB","OBJECT_ID":"1993-036AYW","EPOCH":"2026-03-28T15:07:29.669664","MEAN_MOTION":14.761123,"ECCENTRICITY":0.0012596,"INCLINATION":74.0291,"RA_OF_ASC_NODE":223.7642,"ARG_OF_PERICENTER":278.7031,"MEAN_ANOMALY":81.2717,"EPHEMERIS_TYPE":0,"CLASSIFICATION_TYPE":"U","NORAD_CAT_ID":36369,"ELEMENT_SET_NO":999,"REV_AT_EPOCH":87483,"BSTAR":0.0019671,"MEAN_MOTION_DOT":0.00013593,"MEAN_MOTION_DDOT":0},{"OBJECT_NAME":"COSMOS 2251 DEB","OBJECT_ID":"1993-036AYY","EPOCH":"2026-03-27T21:28:26.188320","MEAN_MOTION":14.73465707,"ECCENTRICITY":0.0006828,"INCLINATION":74.0135,"RA_OF_ASC_NODE":316.6907,"ARG_OF_PERICENTER":328.7684,"MEAN_ANOMALY":31.3082,"EPHEMERIS_TYPE":0,"CLASSIFICATION_TYPE":"U","NORAD_CAT_ID":36371,"ELEMENT_SET_NO":999,"REV_AT_EPOCH":72992,"BSTAR":0.0013234,"MEAN_MOTION_DOT":8.574e-5,"MEAN_MOTION_DDOT":0},{"OBJECT_NAME":"COSMOS 2251 DEB","OBJECT_ID":"1993-036AZG","EPOCH":"2026-03-27T10:31:18.305184","MEAN_MOTION":14.36271032,"ECCENTRICITY":0.0047381,"INCLINATION":74.0098,"RA_OF_ASC_NODE":114.2811,"ARG_OF_PERICENTER":220.3402,"MEAN_ANOMALY":205.9517,"EPHEMERIS_TYPE":0,"CLASSIFICATION_TYPE":"U","NORAD_CAT_ID":36379,"ELEMENT_SET_NO":999,"REV_AT_EPOCH":66331,"BSTAR":0.00019841,"MEAN_MOTION_DOT":5.6e-6,"MEAN_MOTION_DDOT":0},{"OBJECT_NAME":"COSMOS 2251 DEB","OBJECT_ID":"1993-036AZN","EPOCH":"2026-03-29T00:38:19.933440","MEAN_MOTION":14.75282622,"ECCENTRICITY":0.0135516,"INCLINATION":73.9696,"RA_OF_ASC_NODE":306.2366,"ARG_OF_PERICENTER":95.8894,"MEAN_ANOMALY":265.7745,"EPHEMERIS_TYPE":0,"CLASSIFICATION_TYPE":"U","NORAD_CAT_ID":36385,"ELEMENT_SET_NO":999,"REV_AT_EPOCH":86668,"BSTAR":0.001706,"MEAN_MOTION_DOT":0.00013408,"MEAN_MOTION_DDOT":0},{"OBJECT_NAME":"COSMOS 2251 DEB","OBJECT_ID":"1993-036AZT","EPOCH":"2026-03-26T06:46:23.407104","MEAN_MOTION":14.37005371,"ECCENTRICITY":0.0017807,"INCLINATION":74.0347,"RA_OF_ASC_NODE":85.1205,"ARG_OF_PERICENTER":156.2158,"MEAN_ANOMALY":221.9838,"EPHEMERIS_TYPE":0,"CLASSIFICATION_TYPE":"U","NORAD_CAT_ID":36420,"ELEMENT_SET_NO":999,"REV_AT_EPOCH":86524,"BSTAR":0.00012353,"MEAN_MOTION_DOT":3.41e-6,"MEAN_MOTION_DDOT":0},{"OBJECT_NAME":"COSMOS 2251 DEB","OBJECT_ID":"1993-036BAD","EPOCH":"2026-03-24T19:52:09.156000","MEAN_MOTION":14.28025131,"ECCENTRICITY":0.00960409,"INCLINATION":74.002,"RA_OF_ASC_NODE":283.1787,"ARG_OF_PERICENTER":49.3113,"MEAN_ANOMALY":311.633,"EPHEMERIS_TYPE":0,"CLASSIFICATION_TYPE":"U","NORAD_CAT_ID":36430,"ELEMENT_SET_NO":999,"REV_AT_EPOCH":66014,"BSTAR":0.00030998813,"MEAN_MOTION_DOT":7.83e-6,"MEAN_MOTION_DDOT":0},{"OBJECT_NAME":"COSMOS 2251 DEB","OBJECT_ID":"1993-036BAL","EPOCH":"2026-03-28T23:38:33.598176","MEAN_MOTION":14.73018194,"ECCENTRICITY":0.0020872,"INCLINATION":73.9416,"RA_OF_ASC_NODE":186.1984,"ARG_OF_PERICENTER":21.0694,"MEAN_ANOMALY":339.1332,"EPHEMERIS_TYPE":0,"CLASSIFICATION_TYPE":"U","NORAD_CAT_ID":36437,"ELEMENT_SET_NO":999,"REV_AT_EPOCH":67614,"BSTAR":0.001577,"MEAN_MOTION_DOT":0.00010151,"MEAN_MOTION_DDOT":0},{"OBJECT_NAME":"COSMOS 2251 DEB","OBJECT_ID":"1993-036BAN","EPOCH":"2026-03-29T02:35:58.301952","MEAN_MOTION":13.48184817,"ECCENTRICITY":0.042643,"INCLINATION":73.969,"RA_OF_ASC_NODE":226.886,"ARG_OF_PERICENTER":178.365,"MEAN_ANOMALY":181.8974,"EPHEMERIS_TYPE":0,"CLASSIFICATION_TYPE":"U","NORAD_CAT_ID":36439,"ELEMENT_SET_NO":999,"REV_AT_EPOCH":60046,"BSTAR":0.0020276,"MEAN_MOTION_DOT":2.173e-5,"MEAN_MOTION_DDOT":0},{"OBJECT_NAME":"COSMOS 2251 DEB","OBJECT_ID":"1993-036BAQ","EPOCH":"2026-03-20T11:05:07.336608","MEAN_MOTION":15.08819493,"ECCENTRICITY":0.0107373,"INCLINATION":73.8339,"RA_OF_ASC_NODE":146.1973,"ARG_OF_PERICENTER":226.1165,"MEAN_ANOMALY":133.1122,"EPHEMERIS_TYPE":0,"CLASSIFICATION_TYPE":"U","NORAD_CAT_ID":36441,"ELEMENT_SET_NO":999,"REV_AT_EPOCH":88438,"BSTAR":0.00035476168,"MEAN_MOTION_DOT":6.342e-5,"MEAN_MOTION_DDOT":0},{"OBJECT_NAME":"COSMOS 2251 DEB","OBJECT_ID":"1993-036BBA","EPOCH":"2026-03-25T03:55:05.918016","MEAN_MOTION":14.19171907,"ECCENTRICITY":0.01859878,"INCLINATION":73.9541,"RA_OF_ASC_NODE":151.3074,"ARG_OF_PERICENTER":312.216,"MEAN_ANOMALY":46.3323,"EPHEMERIS_TYPE":0,"CLASSIFICATION_TYPE":"U","NORAD_CAT_ID":36451,"ELEMENT_SET_NO":999,"REV_AT_EPOCH":85678,"BSTAR":0.00071711563,"MEAN_MOTION_DOT":1.756e-5,"MEAN_MOTION_DDOT":0},{"OBJECT_NAME":"COSMOS 2251 DEB","OBJECT_ID":"1993-036BBC","EPOCH":"2026-03-27T01:52:54.439104","MEAN_MOTION":14.53511832,"ECCENTRICITY":0.00708998,"INCLINATION":73.9245,"RA_OF_ASC_NODE":314.1223,"ARG_OF_PERICENTER":194.763,"MEAN_ANOMALY":316.7727,"EPHEMERIS_TYPE":0,"CLASSIFICATION_TYPE":"U","NORAD_CAT_ID":36453,"ELEMENT_SET_NO":999,"REV_AT_EPOCH":85983,"BSTAR":0.00065580458,"MEAN_MOTION_DOT":2.798e-5,"MEAN_MOTION_DDOT":0},{"OBJECT_NAME":"COSMOS 2251 DEB","OBJECT_ID":"1993-036BBJ","EPOCH":"2026-03-28T11:48:49.887648","MEAN_MOTION":14.27274518,"ECCENTRICITY":0.01174816,"INCLINATION":74.0461,"RA_OF_ASC_NODE":168.5998,"ARG_OF_PERICENTER":239.7035,"MEAN_ANOMALY":119.2449,"EPHEMERIS_TYPE":0,"CLASSIFICATION_TYPE":"U","NORAD_CAT_ID":36459,"ELEMENT_SET_NO":999,"REV_AT_EPOCH":9390,"BSTAR":0.0016727373,"MEAN_MOTION_DOT":4.379e-5,"MEAN_MOTION_DDOT":0},{"OBJECT_NAME":"COSMOS 2251 DEB","OBJECT_ID":"1993-036BBV","EPOCH":"2026-03-29T02:35:09.903264","MEAN_MOTION":15.23230514,"ECCENTRICITY":0.0026416,"INCLINATION":73.834,"RA_OF_ASC_NODE":30.6775,"ARG_OF_PERICENTER":201.852,"MEAN_ANOMALY":158.1553,"EPHEMERIS_TYPE":0,"CLASSIFICATION_TYPE":"U","NORAD_CAT_ID":36470,"ELEMENT_SET_NO":999,"REV_AT_EPOCH":67704,"BSTAR":0.004602,"MEAN_MOTION_DOT":0.00111667,"MEAN_MOTION_DDOT":0},{"OBJECT_NAME":"COSMOS 2251 DEB","OBJECT_ID":"1993-036BCT","EPOCH":"2026-03-27T18:50:25.202688","MEAN_MOTION":14.5019273,"ECCENTRICITY":0.00474182,"INCLINATION":74.0092,"RA_OF_ASC_NODE":277.2609,"ARG_OF_PERICENTER":40.2134,"MEAN_ANOMALY":320.2518,"EPHEMERIS_TYPE":0,"CLASSIFICATION_TYPE":"U","NORAD_CAT_ID":36533,"ELEMENT_SET_NO":999,"REV_AT_EPOCH":86007,"BSTAR":0.00031294164,"MEAN_MOTION_DOT":1.206e-5,"MEAN_MOTION_DDOT":0},{"OBJECT_NAME":"COSMOS 2251 DEB","OBJECT_ID":"1993-036BCZ","EPOCH":"2026-03-29T00:54:46.243872","MEAN_MOTION":14.60063919,"ECCENTRICITY":0.0027941,"INCLINATION":74.0231,"RA_OF_ASC_NODE":212.27,"ARG_OF_PERICENTER":325.6822,"MEAN_ANOMALY":34.2537,"EPHEMERIS_TYPE":0,"CLASSIFICATION_TYPE":"U","NORAD_CAT_ID":36539,"ELEMENT_SET_NO":999,"REV_AT_EPOCH":85498,"BSTAR":0.00068903,"MEAN_MOTION_DOT":3.3e-5,"MEAN_MOTION_DDOT":0}]
